[{"OBJECT_NAME":"PANDORE","OBJECT_ID":"2025-052AL","EPOCH":"2026-03-09T16:13:59.670048","MEAN_MOTION":14.94431732,"ECCENTRICITY":0.0005112,"INCLINATION":97.7015,"RA_OF_ASC_NODE":321.9433,"ARG_OF_PERICENTER":151.9155,"MEAN_ANOMALY":208.2342,"EPHEMERIS_TYPE":0,"CLASSIFICATION_TYPE":"U","NORAD_CAT_ID":63244,"ELEMENT_SET_NO":999,"REV_AT_EPOCH":5374,"BSTAR":0.00033342696,"MEAN_MOTION_DOT":3.538e-5,"MEAN_MOTION_DDOT":0},{"OBJECT_NAME":"TURKSAT-3USAT","OBJECT_ID":"2013-018C","EPOCH":"2026-03-09T19:52:59.932416","MEAN_MOTION":14.95734186,"ECCENTRICITY":0.00131837,"INCLINATION":97.7913,"RA_OF_ASC_NODE":160.1317,"ARG_OF_PERICENTER":74.0986,"MEAN_ANOMALY":286.1687,"EPHEMERIS_TYPE":0,"CLASSIFICATION_TYPE":"U","NORAD_CAT_ID":39152,"ELEMENT_SET_NO":999,"REV_AT_EPOCH":69623,"BSTAR":0.00039789997,"MEAN_MOTION_DOT":4.382e-5,"MEAN_MOTION_DDOT":0}]
